GLOBALSTAR M001         
1 25162U 98008A   25007.65910587 -.00000088  00000+0  63019-4 0  9995
2 25162  52.0041  80.4527 0001102 249.1143 276.8220 12.38205027223828
GLOBALSTAR M004         
1 25163U 98008B   25007.77976978 -.00000046  00000+0  31925-3 0  9999
2 25163  51.9974 183.5127 0001997 305.9315  67.7216 12.63384515241412
GLOBALSTAR M002         
1 25164U 98008C   25008.09840275 -.00000051  00000+0  49623-3 0  9996
2 25164  52.0020 281.6017 0000606 186.1586 173.9226 11.61506502165538
GLOBALSTAR M003         
1 25165U 98008D   25007.81506317 -.00000011  00000+0  83764-3 0  9992
2 25165  51.9974 252.6789 0007930 335.7419 120.2574 12.12064519213778
GLOBALSTAR M014         
1 25306U 98023A   25007.81929448 -.00000046  00000+0  59355-3 0  9997
2 25306  51.9805 208.8973 0002182  75.1993 298.2429 11.65477840172470
GLOBALSTAR M006         
1 25307U 98023B   25008.13138250 -.00000060  00000+0  31877-3 0  9992
2 25307  51.9922 254.6006 0003321 159.1710 314.2932 11.58171271198391
GLOBALSTAR M015         
1 25308U 98023C   25007.63869090 -.00000041  00000+0  73216-3 0  9992
2 25308  51.9848 346.9384 0012624 149.8651  23.9184 11.48855894175622
GLOBALSTAR M008         
1 25309U 98023D   25007.79046392 -.00000044  00000+0  40938-3 0  9990
2 25309  51.9986 303.0846 0002078 188.4308 188.0895 12.36060234218010
